{"type": "FeatureCollection", "features": [{"type": "Feature", "properties": {"iso": "TCD", "name": "Chad", "name_fr": "Tchad", "pop": 15946876, "gdp_md": 11314, "income": "5. Low income"}, "geometry": {"type": "Polygon", "coordinates": [[[23.83766, 19.58047], [23.88689, 15.61084], [23.02459, 15.68072], [22.56795, 14.94429], [22.30351, 14.32682], [22.51202, 14.09318], [22.18329, 13.78648], [22.29658, 13.37232], [22.03759, 12.95546], [21.93681, 12.58818], [22.28801, 12.64605], [22.49762, 12.26024], [22.50869, 11.67936], [22.87622, 11.38461], [22.864165, 11.142395], [22.231129, 10.971889], [21.723822, 10.567056], [21.000868, 9.475985], [20.059685, 9.012706], [19.094008, 9.074847], [18.81201, 8.982915], [18.911022, 8.630895], [18.389555, 8.281304], [17.96493, 7.890914], [16.705988, 7.508328], [16.456185, 7.734774], [16.290562, 7.754307], [16.106232, 7.497088], [15.27946, 7.421925], [15.436092, 7.692812], [15.120866, 8.38215], [14.979996, 8.796104], [14.544467, 8.965861], [13.954218, 9.549495], [14.171466, 10.021378], [14.627201, 9.920919], [14.909354, 9.992129], [15.467873, 9.982337], [14.923565, 10.891325], [14.960152, 11.555574], [14.89336, 12.21905], [14.495787, 12.859396], [14.595781, 13.330427], [13.954477, 13.353449], [13.956699, 13.996691], [13.540394, 14.367134], [13.97217, 15.68437], [15.247731, 16.627306], [15.300441, 17.92795], [15.685741, 19.95718], [15.903247, 20.387619], [15.487148, 20.730415], [15.47106, 21.04845], [15.096888, 21.308519], [14.8513, 22.86295], [15.86085, 23.40972], [19.84926, 21.49509], [23.83766, 19.58047]]]}}, {"type": "Feature", "properties": {"iso": "CMR", "name": "Cameroon", "name_fr": "Cameroun", "pop": 25876380, "gdp_md": 39007, "income": "4. Lower middle income"}, "geometry": {"type": "Polygon", "coordinates": [[[14.495787, 12.859396], [14.89336, 12.21905], [14.960152, 11.555574], [14.923565, 10.891325], [15.467873, 9.982337], [14.909354, 9.992129], [14.627201, 9.920919], [14.171466, 10.021378], [13.954218, 9.549495], [14.544467, 8.965861], [14.979996, 8.796104], [15.120866, 8.38215], [15.436092, 7.692812], [15.27946, 7.421925], [14.776545, 6.408498], [14.53656, 6.226959], [14.459407, 5.451761], [14.558936, 5.030598], [14.478372, 4.732605], [14.950953, 4.210389], [15.03622, 3.851367], [15.405396, 3.335301], [15.862732, 3.013537], [15.907381, 2.557389], [16.012852, 2.26764], [15.940919, 1.727673], [15.146342, 1.964015], [14.337813, 2.227875], [13.075822, 2.267097], [12.951334, 2.321616], [12.35938, 2.192812], [11.751665, 2.326758], [11.276449, 2.261051], [9.649158, 2.283866], [9.795196, 3.073404], [9.404367, 3.734527], [8.948116, 3.904129], [8.744924, 4.352215], [8.488816, 4.495617], [8.500288, 4.771983], [8.757533, 5.479666], [9.233163, 6.444491], [9.522706, 6.453482], [10.118277, 7.03877], [10.497375, 7.055358], [11.058788, 6.644427], [11.745774, 6.981383], [11.839309, 7.397042], [12.063946, 7.799808], [12.218872, 8.305824], [12.753672, 8.717763], [12.955468, 9.417772], [13.1676, 9.640626], [13.308676, 10.160362], [13.57295, 10.798566], [14.415379, 11.572369], [14.468192, 11.904752], [14.577178, 12.085361], [14.181336, 12.483657], [14.213531, 12.802035], [14.495787, 12.859396]]]}}, {"type": "Feature", "properties": {"iso": "CAF", "name": "Central African Rep.", "name_fr": "République Centrafricaine", "pop": 4745185, "gdp_md": 2220, "income": "5. Low income"}, "geometry": {"type": "Polygon", "coordinates": [[[27.374226, 5.233944], [27.044065, 5.127853], [26.402761, 5.150875], [25.650455, 5.256088], [25.278798, 5.170408], [25.128833, 4.927245], [24.805029, 4.897247], [24.410531, 5.108784], [23.297214, 4.609693], [22.84148, 4.710126], [22.704124, 4.633051], [22.405124, 4.02916], [21.659123, 4.224342], [20.927591, 4.322786], [20.290679, 4.691678], [19.467784, 5.031528], [18.932312, 4.709506], [18.542982, 4.201785], [18.453065, 3.504386], [17.8099, 3.560196], [17.133042, 3.728197], [16.537058, 3.198255], [16.012852, 2.26764], [15.907381, 2.557389], [15.862732, 3.013537], [15.405396, 3.335301], [15.03622, 3.851367], [14.950953, 4.210389], [14.478372, 4.732605], [14.558936, 5.030598], [14.459407, 5.451761], [14.53656, 6.226959], [14.776545, 6.408498], [15.27946, 7.421925], [16.106232, 7.497088], [16.290562, 7.754307], [16.456185, 7.734774], [16.705988, 7.508328], [17.96493, 7.890914], [18.389555, 8.281304], [18.911022, 8.630895], [18.81201, 8.982915], [19.094008, 9.074847], [20.059685, 9.012706], [21.000868, 9.475985], [21.723822, 10.567056], [22.231129, 10.971889], [22.864165, 11.142395], [22.977544, 10.714463], [23.554304, 10.089255], [23.55725, 9.681218], [23.394779, 9.265068], [23.459013, 8.954286], [23.805813, 8.666319], [24.567369, 8.229188], [25.114932, 7.825104], [25.124131, 7.500085], [25.796648, 6.979316], [26.213418, 6.546603], [26.465909, 5.946717], [27.213409, 5.550953], [27.374226, 5.233944]]]}}, {"type": "Feature", "properties": {"iso": "COG", "name": "Congo", "name_fr": "Congo", "pop": 5380508, "gdp_md": 12267, "income": "4. Lower middle income"}, "geometry": {"type": "Polygon", "coordinates": [[[18.453065, 3.504386], [18.393792, 2.900443], [18.094276, 2.365722], [17.898835, 1.741832], [17.774192, 0.855659], [17.82654, 0.288923], [17.663553, -0.058084], [17.638645, -0.424832], [17.523716, -0.74383], [16.865307, -1.225816], [16.407092, -1.740927], [15.972803, -2.712392], [16.00629, -3.535133], [15.75354, -3.855165], [15.170992, -4.343507], [14.582604, -4.970239], [14.209035, -4.793092], [14.144956, -4.510009], [13.600235, -4.500138], [13.25824, -4.882957], [12.995517, -4.781103], [12.62076, -4.438023], [12.318608, -4.60623], [11.914963, -5.037987], [11.093773, -3.978827], [11.855122, -3.426871], [11.478039, -2.765619], [11.820964, -2.514161], [12.495703, -2.391688], [12.575284, -1.948511], [13.109619, -2.42874], [13.992407, -2.470805], [14.29921, -1.998276], [14.425456, -1.333407], [14.316418, -0.552627], [13.843321, 0.038758], [14.276266, 1.19693], [14.026669, 1.395677], [13.282631, 1.314184], [13.003114, 1.830896], [13.075822, 2.267097], [14.337813, 2.227875], [15.146342, 1.964015], [15.940919, 1.727673], [16.012852, 2.26764], [16.537058, 3.198255], [17.133042, 3.728197], [17.8099, 3.560196], [18.453065, 3.504386]]]}}, {"type": "Feature", "properties": {"iso": "GAB", "name": "Gabon", "name_fr": "Gabon", "pop": 2172579, "gdp_md": 16874, "income": "3. Upper middle income"}, "geometry": {"type": "Polygon", "coordinates": [[[11.276449, 2.261051], [11.751665, 2.326758], [12.35938, 2.192812], [12.951334, 2.321616], [13.075822, 2.267097], [13.003114, 1.830896], [13.282631, 1.314184], [14.026669, 1.395677], [14.276266, 1.19693], [13.843321, 0.038758], [14.316418, -0.552627], [14.425456, -1.333407], [14.29921, -1.998276], [13.992407, -2.470805], [13.109619, -2.42874], [12.575284, -1.948511], [12.495703, -2.391688], [11.820964, -2.514161], [11.478039, -2.765619], [11.855122, -3.426871], [11.093773, -3.978827], [10.066135, -2.969483], [9.405245, -2.144313], [8.797996, -1.111301], [8.830087, -0.779074], [9.04842, -0.459351], [9.291351, 0.268666], [9.492889, 1.01012], [9.830284, 1.067894], [11.285079, 1.057662], [11.276449, 2.261051]]]}}, {"type": "Feature", "properties": {"iso": "GNQ", "name": "Eq. Guinea", "name_fr": "Guinée équatoriale", "pop": 1355986, "gdp_md": 11026, "income": "2. High income: nonOECD"}, "geometry": {"type": "Polygon", "coordinates": [[[9.649158, 2.283866], [11.276449, 2.261051], [11.285079, 1.057662], [9.830284, 1.067894], [9.492889, 1.01012], [9.305613, 1.160911], [9.649158, 2.283866]]]}}]}